{"type": "FeatureCollection", "features": [ {"type": "Feature", "properties": {"norad_id": 29843, "name": "FENGYUN 1C DEB", "group": "fengyun-1c-debris", "lat": -73.74252458724293, "lon": -127.90065928219911, "alt_km": 686.3932393333425, "timestamp": "2025-12-26T04:40:06.058129+00:00", "meta": {"OBJECT_NAME": "FENGYUN 1C DEB", "OBJECT_ID": "1999-025EM", "EPOCH": "2025-12-25T02:43:41.975328", "MEAN_MOTION": 14.28578868, "ECCENTRICITY": 0.0191597, "INCLINATION": 99.0367, "RA_OF_ASC_NODE": 197.9051, "ARG_OF_PERICENTER": 254.7579, "MEAN_ANOMALY": 232.2122, "EPHEMERIS_TYPE": 0, "CLASSIFICATION_TYPE": "U", "NORAD_CAT_ID": 29843, "ELEMENT_SET_NO": 999, "REV_AT_EPOCH": 98458, "BSTAR": 0.00024100333, "MEAN_MOTION_DOT": 6.82e-06, "MEAN_MOTION_DDOT": 0}, "tle": {"line1": "1 29843U 99025EM  25359.11368027  .00000682  00000+0  24100-3 0  9998", "line2": "2 29843  99.0367 197.9051 0191597 254.7579 232.2122 14.28578868984580"}}, "geometry": {"type": "Point", "coordinates": [-127.90065928219911, -73.74252458724293]}}, {"type": "Feature", "properties": {"norad_id": 29844, "name": "FENGYUN 1C DEB", "group": "fengyun-1c-debris", "lat": 48.129768452655696, "lon": 92.05598531598729, "alt_km": 659.993087235659, "timestamp": "2025-12-26T04:40:06.058139+00:00", "meta": {"OBJECT_NAME": "FENGYUN 1C DEB", "OBJECT_ID": "1999-025EN", "EPOCH": "2025-12-25T16:19:40.137024", "MEAN_MOTION": 14.32014005, "ECCENTRICITY": 0.01686621, "INCLINATION": 98.937, "RA_OF_ASC_NODE": 261.4149, "ARG_OF_PERICENTER": 129.3376, "MEAN_ANOMALY": 232.2893, "EPHEMERIS_TYPE": 0, "CLASSIFICATION_TYPE": "U", "NORAD_CAT_ID": 29844, "ELEMENT_SET_NO": 999, "REV_AT_EPOCH": 98526, "BSTAR": 0.00040314264, "MEAN_MOTION_DOT": 1.216e-05, "MEAN_MOTION_DDOT": 0}, "tle": {"line1": "1 29844U 99025EN  25359.68032566  .00001216  00000+0  40314-3 0  9996", "line2": "2 29844  98.9370 261.4149 0168662 129.3376 232.2893 14.32014005985261"}}, "geometry": {"type": "Point", "coordinates": [92.05598531598729, 48.129768452655696]}}, {"type": "Feature", "properties": {"norad_id": 29845, "name": "FENGYUN 1C DEB", "group": "fengyun-1c-debris", "lat": 62.49977617961335, "lon": -163.07931554430715, "alt_km": 745.9258815748935, "timestamp": "2025-12-26T04:40:06.058150+00:00", "meta": {"OBJECT_NAME": "FENGYUN 1C DEB", "OBJECT_ID": "1999-025EP", "EPOCH": "2025-12-25T21:42:20.062368", "MEAN_MOTION": 14.26516625, "ECCENTRICITY": 0.00781631, "INCLINATION": 98.5221, "RA_OF_ASC_NODE": 359.8981, "ARG_OF_PERICENTER": 93.0247, "MEAN_ANOMALY": 333.7798, "EPHEMERIS_TYPE": 0, "CLASSIFICATION_TYPE": "U", "NORAD_CAT_ID": 29845, "ELEMENT_SET_NO": 999, "REV_AT_EPOCH": 98297, "BSTAR": 0.00049346468, "MEAN_MOTION_DOT": 1.186e-05, "MEAN_MOTION_DDOT": 0}, "tle": {"line1": "1 29845U 99025EP  25359.90439887  .00001186  00000+0  49346-3 0  9999", "line2": "2 29845  98.5221 359.8981 0078163  93.0247 333.7798 14.26516625982973"}}, "geometry": {"type": "Point", "coordinates": [-163.07931554430715, 62.49977617961335]}}, {"type": "Feature", "properties": {"norad_id": 29846, "name": "FENGYUN 1C DEB", "group": "fengyun-1c-debris", "lat": 31.969625384783633, "lon": -132.84686154313394, "alt_km": 854.0172666675107, "timestamp": "2025-12-26T04:40:06.058160+00:00", "meta": {"OBJECT_NAME": "FENGYUN 1C DEB", "OBJECT_ID": "1999-025EQ", "EPOCH": "2025-12-25T23:27:15.181920", "MEAN_MOTION": 14.19100423, "ECCENTRICITY": 0.00837734, "INCLINATION": 98.6534, "RA_OF_ASC_NODE": 41.487, "ARG_OF_PERICENTER": 265.6914, "MEAN_ANOMALY": 213.405, "EPHEMERIS_TYPE": 0, "CLASSIFICATION_TYPE": "U", "NORAD_CAT_ID": 29846, "ELEMENT_SET_NO": 999, "REV_AT_EPOCH": 98047, "BSTAR": 0.00013845781, "MEAN_MOTION_DOT": 2.56e-06, "MEAN_MOTION_DDOT": 0}, "tle": {"line1": "1 29846U 99025EQ  25359.97725905  .00000256  00000+0  13846-3 0  9999", "line2": "2 29846  98.6534  41.4870 0083773 265.6914 213.4050 14.19100423980479"}}, "geometry": {"type": "Point", "coordinates": [-132.84686154313394, 31.969625384783633]}}, {"type": "Feature", "properties": {"norad_id": 29847, "name": "FENGYUN 1C DEB", "group": "fengyun-1c-debris", "lat": -24.011128753931228, "lon": -0.18600218411407698, "alt_km": 833.2956578882686, "timestamp": "2025-12-26T04:40:06.058170+00:00", "meta": {"OBJECT_NAME": "FENGYUN 1C DEB", "OBJECT_ID": "1999-025ER", "EPOCH": "2025-12-25T23:56:10.869792", "MEAN_MOTION": 14.03013545, "ECCENTRICITY": 0.00847205, "INCLINATION": 98.9041, "RA_OF_ASC_NODE": 355.6167, "ARG_OF_PERICENTER": 2.1046, "MEAN_ANOMALY": 58.7937, "EPHEMERIS_TYPE": 0, "CLASSIFICATION_TYPE": "U", "NORAD_CAT_ID": 29847, "ELEMENT_SET_NO": 999, "REV_AT_EPOCH": 96921, "BSTAR": 0.000329493, "MEAN_MOTION_DOT": 4.85e-06, "MEAN_MOTION_DDOT": 0}, "tle": {"line1": "1 29847U 99025ER  25359.99734803  .00000485  00000+0  32949-3 0  9998", "line2": "2 29847  98.9041 355.6167 0084720   2.1046  58.7937 14.03013545969212"}}, "geometry": {"type": "Point", "coordinates": [-0.18600218411407698, -24.011128753931228]}}, {"type": "Feature", "properties": {"norad_id": 29848, "name": "FENGYUN 1C DEB", "group": "fengyun-1c-debris", "lat": -81.45172389721445, "lon": -59.298385284954776, "alt_km": 750.0810171509256, "timestamp": "2025-12-26T04:40:06.058180+00:00", "meta": {"OBJECT_NAME": "FENGYUN 1C DEB", "OBJECT_ID": "1999-025ES", "EPOCH": "2025-12-25T14:09:47.219904", "MEAN_MOTION": 14.20638169, "ECCENTRICITY": 0.0116329, "INCLINATION": 98.2482, "RA_OF_ASC_NODE": 225.3383, "ARG_OF_PERICENTER": 257.5907, "MEAN_ANOMALY": 165.0338, "EPHEMERIS_TYPE": 0, "CLASSIFICATION_TYPE": "U", "NORAD_CAT_ID": 29848, "ELEMENT_SET_NO": 999, "REV_AT_EPOCH": 97300, "BSTAR": 0.0012637, "MEAN_MOTION_DOT": 2.872e-05, "MEAN_MOTION_DDOT": 0}, "tle": {"line1": "1 29848U 99025ES  25359.59012986  .00002872  00000+0  12637-2 0  9999", "line2": "2 29848  98.2482 225.3383 0116329 257.5907 165.0338 14.20638169973004"}}, "geometry": {"type": "Point", "coordinates": [-59.298385284954776, -81.45172389721445]}}, {"type": "Feature", "properties": {"norad_id": 29849, "name": "FENGYUN 1C DEB", "group": "fengyun-1c-debris", "lat": 77.08389652492824, "lon": 40.698349177329106, "alt_km": 853.1377675449903, "timestamp": "2025-12-26T04:40:06.058190+00:00", "meta": {"OBJECT_NAME": "FENGYUN 1C DEB", "OBJECT_ID": "1999-025ET", "EPOCH": "2025-12-25T18:37:26.862240", "MEAN_MOTION": 14.04928703, "ECCENTRICITY": 0.00798544, "INCLINATION": 99.0101, "RA_OF_ASC_NODE": 84.0614, "ARG_OF_PERICENTER": 7.8427, "MEAN_ANOMALY": 116.4607, "EPHEMERIS_TYPE": 0, "CLASSIFICATION_TYPE": "U", "NORAD_CAT_ID": 29849, "ELEMENT_SET_NO": 999, "REV_AT_EPOCH": 96553, "BSTAR": 0.0010006013, "MEAN_MOTION_DOT": 1.611e-05, "MEAN_MOTION_DDOT": 0}, "tle": {"line1": "1 29849U 99025ET  25359.77600535  .00001611  00000+0  10006-2 0  9991", "line2": "2 29849  99.0101  84.0614 0079854   7.8427 116.4607 14.04928703965539"}}, "geometry": {"type": "Point", "coordinates": [40.698349177329106, 77.08389652492824]}}, {"type": "Feature", "properties": {"norad_id": 29850, "name": "FENGYUN 1C DEB", "group": "fengyun-1c-debris", "lat": 44.982043121896275, "lon": 113.54729948714966, "alt_km": 923.3105851347955, "timestamp": "2025-12-26T04:40:06.058201+00:00", "meta": {"OBJECT_NAME": "FENGYUN 1C DEB", "OBJECT_ID": "1999-025EU", "EPOCH": "2025-12-25T13:27:44.260416", "MEAN_MOTION": 13.99902483, "ECCENTRICITY": 0.0101911, "INCLINATION": 98.1257, "RA_OF_ASC_NODE": 284.7756, "ARG_OF_PERICENTER": 253.1771, "MEAN_ANOMALY": 290.9682, "EPHEMERIS_TYPE": 0, "CLASSIFICATION_TYPE": "U", "NORAD_CAT_ID": 29850, "ELEMENT_SET_NO": 999, "REV_AT_EPOCH": 96199, "BSTAR": 0.0010711, "MEAN_MOTION_DOT": 1.607e-05, "MEAN_MOTION_DDOT": 0}, "tle": {"line1": "1 29850U 99025EU  25359.56092894  .00001607  00000+0  10711-2 0  9991", "line2": "2 29850  98.1257 284.7756 0101911 253.1771 290.9682 13.99902483961994"}}, "geometry": {"type": "Point", "coordinates": [113.54729948714966, 44.982043121896275]}}, {"type": "Feature", "properties": {"norad_id": 29851, "name": "FENGYUN 1C DEB", "group": "fengyun-1c-debris", "lat": 16.378466245630417, "lon": 38.526842506304035, "alt_km": 1055.703687337269, "timestamp": "2025-12-26T04:40:06.058212+00:00", "meta": {"OBJECT_NAME": "FENGYUN 1C DEB", "OBJECT_ID": "1999-025EV", "EPOCH": "2025-12-25T15:18:06.505920", "MEAN_MOTION": 13.8361005, "ECCENTRICITY": 0.0142524, "INCLINATION": 99.5827, "RA_OF_ASC_NODE": 40.8054, "ARG_OF_PERICENTER": 193.427, "MEAN_ANOMALY": 290.7909, "EPHEMERIS_TYPE": 0, "CLASSIFICATION_TYPE": "U", "NORAD_CAT_ID": 29851, "ELEMENT_SET_NO": 999, "REV_AT_EPOCH": 95545, "BSTAR": 0.00033733, "MEAN_MOTION_DOT": 3.56e-06, "MEAN_MOTION_DDOT": 0}, "tle": {"line1": "1 29851U 99025EV  25359.63757530  .00000356  00000+0  33733-3 0  9995", "line2": "2 29851  99.5827  40.8054 0142524 193.4270 290.7909 13.83610050955453"}}, "geometry": {"type": "Point", "coordinates": [38.526842506304035, 16.378466245630417]}}, {"type": "Feature", "properties": {"norad_id": 29852, "name": "FENGYUN 1C DEB", "group": "fengyun-1c-debris", "lat": -79.99264637038017, "lon": 121.10615970383421, "alt_km": 963.9046154621155, "timestamp": "2025-12-26T04:40:06.058222+00:00", "meta": {"OBJECT_NAME": "FENGYUN 1C DEB", "OBJECT_ID": "1999-025EW", "EPOCH": "2025-12-25T12:45:46.376064", "MEAN_MOTION": 14.07140298, "ECCENTRICITY": 0.0135031, "INCLINATION": 99.3712, "RA_OF_ASC_NODE": 9.7825, "ARG_OF_PERICENTER": 114.6706, "MEAN_ANOMALY": 35.761, "EPHEMERIS_TYPE": 0, "CLASSIFICATION_TYPE": "U", "NORAD_CAT_ID": 29852, "ELEMENT_SET_NO": 999, "REV_AT_EPOCH": 96164, "BSTAR": 0.001442, "MEAN_MOTION_DOT": 2.577e-05, "MEAN_MOTION_DDOT": 0}, "tle": {"line1": "1 29852U 99025EW  25359.53178676  .00002577  00000+0  14420-2 0  9991", "line2": "2 29852  99.3712   9.7825 0135031 114.6706  35.7610 14.07140298961642"}}, "geometry": {"type": "Point", "coordinates": [121.10615970383421, -79.99264637038017]}}]}